{
    "links": {
        "self": "http://www.neowsapp.com/rest/v1/neo/3512348?api_key=iIulBulltgU6a56xZRHN4H3l9WmuAYTsLGpBGhQ2"
    },
    "id": "3512348",
    "neo_reference_id": "3512348",
    "name": "(2010 FD6)",
    "designation": "2010 FD6",
    "nasa_jpl_url": "http://ssd.jpl.nasa.gov/sbdb.cgi?sstr=3512348",
    "absolute_magnitude_h": 26.8,
    "estimated_diameter": {
        "kilometers": {
            "estimated_diameter_min": 0.0116025908,
            "estimated_diameter_max": 0.0259441818
        },
        "meters": {
            "estimated_diameter_min": 11.6025908209,
            "estimated_diameter_max": 25.9441817907
        },
        "miles": {
            "estimated_diameter_min": 0.0072095135,
            "estimated_diameter_max": 0.0161209622
        },
        "feet": {
            "estimated_diameter_min": 38.066244069,
            "estimated_diameter_max": 85.1187093863
        }
    },
    "is_potentially_hazardous_asteroid": false,
    "close_approach_data": [
        {
            "close_approach_date": "1974-10-19",
            "close_approach_date_full": "1974-Oct-19 09:54",
            "epoch_date_close_approach": 151408440000,
            "relative_velocity": {
                "kilometers_per_second": "18.0380515094",
                "kilometers_per_hour": "64936.9854338198",
                "miles_per_hour": "40349.3174213643"
            },
            "miss_distance": {
                "astronomical": "0.2433034324",
                "lunar": "94.6450352036",
                "kilometers": "36397675.250728988",
                "miles": "22616466.6613085144"
            },
            "orbiting_body": "Earth"
        },
        {
            "close_approach_date": "2006-12-02",
            "close_approach_date_full": "2006-Dec-02 19:45",
            "epoch_date_close_approach": 1165088700000,
            "relative_velocity": {
                "kilometers_per_second": "11.4867809063",
                "kilometers_per_hour": "41352.4112627459",
                "miles_per_hour": "25694.7802093434"
            },
            "miss_distance": {
                "astronomical": "0.0692477448",
                "lunar": "26.9373727272",
                "kilometers": "10359315.124383576",
                "miles": "6436979.9315663088"
            },
            "orbiting_body": "Mars"
        },
        {
            "close_approach_date": "2010-03-12",
            "close_approach_date_full": "2010-Mar-12 04:25",
            "epoch_date_close_approach": 1268367900000,
            "relative_velocity": {
                "kilometers_per_second": "11.3943540727",
                "kilometers_per_hour": "41019.6746617736",
                "miles_per_hour": "25488.030625256"
            },
            "miss_distance": {
                "astronomical": "0.0044746659",
                "lunar": "1.7406450351",
                "kilometers": "669400.487601633",
                "miles": "415946.1753152154"
            },
            "orbiting_body": "Moon"
        },
        {
            "close_approach_date": "2010-03-12",
            "close_approach_date_full": "2010-Mar-12 11:08",
            "epoch_date_close_approach": 1268392080000,
            "relative_velocity": {
                "kilometers_per_second": "10.5927231419",
                "kilometers_per_hour": "38133.8033108501",
                "miles_per_hour": "23694.8623961224"
            },
            "miss_distance": {
                "astronomical": "0.0064743414",
                "lunar": "2.5185188046",
                "kilometers": "968547.683092818",
                "miles": "601827.6231561684"
            },
            "orbiting_body": "Earth"
        },
        {
            "close_approach_date": "2053-12-12",
            "close_approach_date_full": "2053-Dec-12 01:42",
            "epoch_date_close_approach": 2649116520000,
            "relative_velocity": {
                "kilometers_per_second": "12.1210621715",
                "kilometers_per_hour": "43635.8238174713",
                "miles_per_hour": "27113.6039714726"
            },
            "miss_distance": {
                "astronomical": "0.0253925552",
                "lunar": "9.8777039728",
                "kilometers": "3798672.171777424",
                "miles": "2360385.4350154912"
            },
            "orbiting_body": "Mars"
        }
    ],
    "orbital_data": {
        "orbit_id": "8",
        "orbit_determination_date": "2017-04-06 08:58:04",
        "first_observation_date": "2010-03-18",
        "last_observation_date": "2010-03-25",
        "data_arc_in_days": 7,
        "observations_used": 21,
        "orbit_uncertainty": "8",
        "minimum_orbit_intersection": ".0027539",
        "jupiter_tisserand_invariant": "4.545",
        "epoch_osculation": "2455275.5",
        "eccentricity": ".4356512566879174",
        "semi_major_axis": "1.447191592965108",
        "inclination": ".4589834255073741",
        "ascending_node_longitude": "152.0331801711355",
        "orbital_period": "635.8980208477353",
        "perihelion_distance": ".8167207568216698",
        "perihelion_argument": "314.5744381236831",
        "aphelion_distance": "2.077662429108547",
        "perihelion_time": "2455221.102434194743",
        "mean_anomaly": "30.79601295784135",
        "mean_motion": ".5661285114869093",
        "equinox": "J2000",
        "orbit_class": {
            "orbit_class_type": "APO",
            "orbit_class_description": "Near-Earth asteroid orbits which cross the Earth’s orbit similar to that of 1862 Apollo",
            "orbit_class_range": "a (semi-major axis) > 1.0 AU; q (perihelion) < 1.017 AU"
        }
    },
    "is_sentry_object": false
}